[{"OBJECT_NAME":"ONEWEB-0277","OBJECT_ID":"2021-060AE","EPOCH":"2026-03-09T22:44:07.410336","MEAN_MOTION":13.16594719,"ECCENTRICITY":0.00016902,"INCLINATION":87.8994,"RA_OF_ASC_NODE":248.5294,"ARG_OF_PERICENTER":97.8922,"MEAN_ANOMALY":262.2401,"EPHEMERIS_TYPE":0,"CLASSIFICATION_TYPE":"U","NORAD_CAT_ID":48995,"ELEMENT_SET_NO":999,"REV_AT_EPOCH":22650,"BSTAR":0.00018895493,"MEAN_MOTION_DOT":8.5e-7,"MEAN_MOTION_DDOT":0},{"OBJECT_NAME":"DELTA 1 DEB","OBJECT_ID":"1975-052KE","EPOCH":"2026-03-09T08:22:02.866656","MEAN_MOTION":12.9867425,"ECCENTRICITY":0.03009353,"INCLINATION":99.6235,"RA_OF_ASC_NODE":26.9328,"ARG_OF_PERICENTER":9.7578,"MEAN_ANOMALY":143.0553,"EPHEMERIS_TYPE":0,"CLASSIFICATION_TYPE":"U","NORAD_CAT_ID":26826,"ELEMENT_SET_NO":999,"REV_AT_EPOCH":63262,"BSTAR":0.0012475045,"MEAN_MOTION_DOT":4.17e-6,"MEAN_MOTION_DDOT":0}]
